[
    {
        "Altitude(m)": 703187.0602107398,
        "Argument of Periapsis(deg)": 0.0011390121186627068,
        "Eccentricity": 0.0,
        "Inclination(deg)": 45.0,
        "Latitude(deg)": 21.795878572277413,
        "Longitude(deg)": 1.5133272089479344,
        "Mean Anomaly(deg)": -211.57397833525198,
        "RAAN(deg)": 304.99892480585413,
        "Satellite Name": "Constellation 1 1351",
        "Satellite Number": 1351,
        "Semi-Major Axis(m)": 7083131.272910544,
        "Time(s)": 19
    },
    {
        "Altitude(m)": 703183.1829714016,
        "Argument of Periapsis(deg)": 0.0011989601249081123,
        "Eccentricity": 0.0,
        "Inclination(deg)": 45.0,
        "Latitude(deg)": 21.756258014256122,
        "Longitude(deg)": 1.558889117267083,
        "Mean Anomaly(deg)": -211.51327719500202,
        "RAAN(deg)": 304.9988682166886,
        "Satellite Name": "Constellation 1 1351",
        "Satellite Number": 1351,
        "Semi-Major Axis(m)": 7083131.272910544,
        "Time(s)": 20
    },
    {
        "Altitude(m)": 703179.318207435,
        "Argument of Periapsis(deg)": 0.001258908131153518,
        "Eccentricity": 0.0,
        "Inclination(deg)": 45.0,
        "Latitude(deg)": 21.716622383173714,
        "Longitude(deg)": 1.6044237714583582,
        "Mean Anomaly(deg)": -211.45257605475214,
        "RAAN(deg)": 304.998811627523,
        "Satellite Name": "Constellation 1 1351",
        "Satellite Number": 1351,
        "Semi-Major Axis(m)": 7083131.272910544,
        "Time(s)": 21
    },
    {
        "Altitude(m)": 703175.4659525546,
        "Argument of Periapsis(deg)": 0.0013188561373989236,
        "Eccentricity": 0.0,
        "Inclination(deg)": 45.0,
        "Latitude(deg)": 21.676971717224358,
        "Longitude(deg)": 1.6499310627318053,
        "Mean Anomaly(deg)": -211.3918749145022,
        "RAAN(deg)": 304.9987550383575,
        "Satellite Name": "Constellation 1 1351",
        "Satellite Number": 1351,
        "Semi-Major Axis(m)": 7083131.272910544,
        "Time(s)": 22
    },
    {
        "Altitude(m)": 703171.626240417,
        "Argument of Periapsis(deg)": 0.0013788041436443293,
        "Eccentricity": 0.0,
        "Inclination(deg)": 45.0,
        "Latitude(deg)": 21.6373060545497,
        "Longitude(deg)": 1.6954113865648017,
        "Mean Anomaly(deg)": -211.33117377425233,
        "RAAN(deg)": 304.9986984491919,
        "Satellite Name": "Constellation 1 1351",
        "Satellite Number": 1351,
        "Semi-Major Axis(m)": 7083131.272910544,
        "Time(s)": 23
    },
    {
        "Altitude(m)": 703167.7991046517,
        "Argument of Periapsis(deg)": 0.001438752149889735,
        "Eccentricity": 0.0,
        "Inclination(deg)": 45.0,
        "Latitude(deg)": 21.59762543323666,
        "Longitude(deg)": 1.7408646341202887,
        "Mean Anomaly(deg)": -211.27047263400243,
        "RAAN(deg)": 304.99864186002634,
        "Satellite Name": "Constellation 1 1351",
        "Satellite Number": 1351,
        "Semi-Major Axis(m)": 7083131.272910544,
        "Time(s)": 24
    },
    {
        "Altitude(m)": 703163.9845788188,
        "Argument of Periapsis(deg)": 0.0014987001561351404,
        "Eccentricity": 0.0,
        "Inclination(deg)": 45.0,
        "Latitude(deg)": 21.557929891319294,
        "Longitude(deg)": 1.786290864634451,
        "Mean Anomaly(deg)": -211.20977149375256,
        "RAAN(deg)": 304.99858527086076,
        "Satellite Name": "Constellation 1 1351",
        "Satellite Number": 1351,
        "Semi-Major Axis(m)": 7083131.272910544,
        "Time(s)": 25
    },
    {
        "Altitude(m)": 703160.182696448,
        "Argument of Periapsis(deg)": 0.001558648162380546,
        "Eccentricity": 0.0,
        "Inclination(deg)": 45.0,
        "Latitude(deg)": 21.518219466778138,
        "Longitude(deg)": 1.8316901373195913,
        "Mean Anomaly(deg)": -211.14907035350265,
        "RAAN(deg)": 304.9985286816952,
        "Satellite Name": "Constellation 1 1351",
        "Satellite Number": 1351,
        "Semi-Major Axis(m)": 7083131.272910544,
        "Time(s)": 26
    },
    {
        "Altitude(m)": 703156.3934910198,
        "Argument of Periapsis(deg)": 0.0016185961686259519,
        "Eccentricity": 0.0,
        "Inclination(deg)": 45.0,
        "Latitude(deg)": 21.47849419754066,
        "Longitude(deg)": 1.877062511363951,
        "Mean Anomaly(deg)": -211.08836921325275,
        "RAAN(deg)": 304.99847209252965,
        "Satellite Name": "Constellation 1 1351",
        "Satellite Number": 1351,
        "Semi-Major Axis(m)": 7083131.272910544,
        "Time(s)": 27
    },
    {
        "Altitude(m)": 703152.6169959635,
        "Argument of Periapsis(deg)": 0.0016785441748713573,
        "Eccentricity": 0.0,
        "Inclination(deg)": 45.0,
        "Latitude(deg)": 21.438754121481175,
        "Longitude(deg)": 1.9224080459317603,
        "Mean Anomaly(deg)": -211.02766807300281,
        "RAAN(deg)": 304.9984155033641,
        "Satellite Name": "Constellation 1 1351",
        "Satellite Number": 1351,
        "Semi-Major Axis(m)": 7083131.272910544,
        "Time(s)": 28
    },
    {
        "Altitude(m)": 703148.8532446647,
        "Argument of Periapsis(deg)": 0.001738492181116763,
        "Eccentricity": 0.0,
        "Inclination(deg)": 45.0,
        "Latitude(deg)": 21.39899927642109,
        "Longitude(deg)": 1.9677268001628248,
        "Mean Anomaly(deg)": -210.96696693275294,
        "RAAN(deg)": 304.9983589141985,
        "Satellite Name": "Constellation 1 1351",
        "Satellite Number": 1351,
        "Semi-Major Axis(m)": 7083131.272910544,
        "Time(s)": 29
    },
    {
        "Altitude(m)": 703145.1022704659,
        "Argument of Periapsis(deg)": 0.0017984401873621684,
        "Eccentricity": 0.0,
        "Inclination(deg)": 45.0,
        "Latitude(deg)": 21.35922970012853,
        "Longitude(deg)": 2.0130186650756547,
        "Mean Anomaly(deg)": -210.90626579250304,
        "RAAN(deg)": 304.9983023250329,
        "Satellite Name": "Constellation 1 1351",
        "Satellite Number": 1351,
        "Semi-Major Axis(m)": 7083131.272910544,
        "Time(s)": 30
    },
    {
        "Altitude(m)": 703141.364106654,
        "Argument of Periapsis(deg)": 0.0018583881936075745,
        "Eccentricity": 0.0,
        "Inclination(deg)": 45.0,
        "Latitude(deg)": 21.319445430320012,
        "Longitude(deg)": 2.058284035955337,
        "Mean Anomaly(deg)": -210.84556465225316,
        "RAAN(deg)": 304.9982457358674,
        "Satellite Name": "Constellation 1 1351",
        "Satellite Number": 1351,
        "Semi-Major Axis(m)": 7083131.272910544,
        "Time(s)": 31
    },
    {
        "Altitude(m)": 703137.6387864777,
        "Argument of Periapsis(deg)": 0.0019183361998529795,
        "Eccentricity": 0.0,
        "Inclination(deg)": 45.0,
        "Latitude(deg)": 21.279646504658288,
        "Longitude(deg)": 2.103522803771266,
        "Mean Anomaly(deg)": -210.78486351200326,
        "RAAN(deg)": 304.9981891467018,
        "Satellite Name": "Constellation 1 1351",
        "Satellite Number": 1351,
        "Semi-Major Axis(m)": 7083131.272910544,
        "Time(s)": 32
    },
    {
        "Altitude(m)": 703133.9263431301,
        "Argument of Periapsis(deg)": 0.0019782842060983856,
        "Eccentricity": 0.0,
        "Inclination(deg)": 45.0,
        "Latitude(deg)": 21.23983296075407,
        "Longitude(deg)": 2.1487350275648978,
        "Mean Anomaly(deg)": -210.72416237175335,
        "RAAN(deg)": 304.9981325575362,
        "Satellite Name": "Constellation 1 1351",
        "Satellite Number": 1351,
        "Semi-Major Axis(m)": 7083131.272910544,
        "Time(s)": 33
    },
    {
        "Altitude(m)": 703130.2268097583,
        "Argument of Periapsis(deg)": 0.0020382322123437906,
        "Eccentricity": 0.0,
        "Inclination(deg)": 45.0,
        "Latitude(deg)": 21.200004836165554,
        "Longitude(deg)": 2.193920766353066,
        "Mean Anomaly(deg)": -210.66346123150342,
        "RAAN(deg)": 304.99807596837064,
        "Satellite Name": "Constellation 1 1351",
        "Satellite Number": 1351,
        "Semi-Major Axis(m)": 7083131.272910544,
        "Time(s)": 34
    },
    {
        "Altitude(m)": 703126.5402194681,
        "Argument of Periapsis(deg)": 0.002098180218589197,
        "Eccentricity": 0.0,
        "Inclination(deg)": 45.0,
        "Latitude(deg)": 21.160162168398717,
        "Longitude(deg)": 2.23908007912732,
        "Mean Anomaly(deg)": -210.60276009125354,
        "RAAN(deg)": 304.99801937920506,
        "Satellite Name": "Constellation 1 1351",
        "Satellite Number": 1351,
        "Semi-Major Axis(m)": 7083131.272910544,
        "Time(s)": 35
    },
    {
        "Altitude(m)": 703122.8666053129,
        "Argument of Periapsis(deg)": 0.002158128224834602,
        "Eccentricity": 0.0,
        "Inclination(deg)": 45.0,
        "Latitude(deg)": 21.120304994907464,
        "Longitude(deg)": 2.284213024854273,
        "Mean Anomaly(deg)": -210.54205895100364,
        "RAAN(deg)": 304.99796279003954,
        "Satellite Name": "Constellation 1 1351",
        "Satellite Number": 1351,
        "Semi-Major Axis(m)": 7083131.272910544,
        "Time(s)": 36
    },
    {
        "Altitude(m)": 703119.2060002981,
        "Argument of Periapsis(deg)": 0.002218076231080008,
        "Eccentricity": 0.0,
        "Inclination(deg)": 45.0,
        "Latitude(deg)": 21.08043335309319,
        "Longitude(deg)": 2.3293194943782263,
        "Mean Anomaly(deg)": -210.4813578107538,
        "RAAN(deg)": 304.99790620087396,
        "Satellite Name": "Constellation 1 1351",
        "Satellite Number": 1351,
        "Semi-Major Axis(m)": 7083131.272910544,
        "Time(s)": 37
    }
]